HULIANWANG DIGUI-106    
1 66916U 25285B   25357.87691928  .00000024  00000+0  11120-3 0  9995
2 66916  50.0064  71.8964 0006880 313.2360  46.7969 14.03704153  2472
HULIANWANG DIGUI-107    
1 66917U 25285C   25357.87516190  .00000020  00000+0  10853-3 0  9991
2 66917  50.0029  71.8795 0007525 322.6171  37.4209 14.03664150  2473
HULIANWANG DIGUI-108    
1 66918U 25285D   25357.87451914  .00000030  00000+0  11468-3 0  9998
2 66918  50.0062  71.8806 0006669 317.2252  42.8133 14.03603256  2478
HULIANWANG DIGUI-109    
1 66919U 25285E   25357.87282899  .00000043  00000+0  12277-3 0  9996
2 66919  50.0075  71.8770 0007919 329.5528  30.4915 14.03727450  2478
HULIANWANG DIGUI-110    
1 66920U 25285F   25357.87206623  .00000026  00000+0  11193-3 0  9996
2 66920  50.0120  71.8800 0005630 326.6808  33.3741 14.03683644  2477
HULIANWANG DIGUI-111    
1 66921U 25285G   25357.87129175  .00000032  00000+0  11601-3 0  9994
2 66921  50.0124  71.8794 0006712 330.4652  29.5873 14.03633200  2472
HULIANWANG DIGUI-112    
1 66922U 25285H   25357.87021046  .00000044  00000+0  12341-3 0  9998
2 66922  50.0096  71.8658 0006531 341.0987  18.9674 14.03663209  2471
HULIANWANG DIGUI-113    
1 66923U 25285J   25357.86900387  .00000035  00000+0  11820-3 0  9993
2 66923  50.0096  71.8611 0005136 335.6438  24.4223 14.03701125  2473
CZ-8A R/B               
1 66924U 25285K   25357.62881420 -.00000009  00000+0  55403-4 0  9992
2 66924  50.0083  69.8031 0119246 145.1331 215.7469 14.30505924  2484
STARLINK-35945          
1 66925U 25286A   25357.83334491 -.01909415  00000+0 -18458-1 0  9995
2 66925  53.1587 354.9564 0001074  80.7275 304.4403 15.68791754  3774
STARLINK-35942          
1 66926U 25286B   25357.83334491 -.01945075  00000+0 -20218-1 0  9995
2 66926  53.1592 354.9668 0001017  94.0052 286.0824 15.67092482  3777
STARLINK-35943          
1 66927U 25286C   25357.83334491 -.01948201  00000+0 -20253-1 0  9999
2 66927  53.1592 354.9628 0001102  86.5516 295.4515 15.67094400  3773
