CCSDS_OMM_VERS = 2.0
CREATION_DATE  = 
ORIGINATOR     = 

OBJECT_NAME    = HULIANWANG DIGUI-106
OBJECT_ID      = 2025-285B
CENTER_NAME    = EARTH
REF_FRAME      = TEME
TIME_SYSTEM    = UTC
MEAN_ELEMENT_THEORY = SGP/SGP4

EPOCH          = 2025-12-23T21:02:45.825792
MEAN_MOTION    = 14.03704153
ECCENTRICITY   = .000688
INCLINATION    = 50.0064
RA_OF_ASC_NODE = 71.8964
ARG_OF_PERICENTER = 313.2360
MEAN_ANOMALY   = 46.7969

EPHEMERIS_TYPE = 0
CLASSIFICATION_TYPE = U
NORAD_CAT_ID   = 66916
ELEMENT_SET_NO = 999
REV_AT_EPOCH   = 247
BSTAR          = .1112E-3
MEAN_MOTION_DOT = .24E-6
MEAN_MOTION_DDOT = 0

CCSDS_OMM_VERS = 2.0
CREATION_DATE  = 
ORIGINATOR     = 

OBJECT_NAME    = HULIANWANG DIGUI-107
OBJECT_ID      = 2025-285C
CENTER_NAME    = EARTH
REF_FRAME      = TEME
TIME_SYSTEM    = UTC
MEAN_ELEMENT_THEORY = SGP/SGP4

EPOCH          = 2025-12-23T21:00:13.988160
MEAN_MOTION    = 14.03664150
ECCENTRICITY   = .0007525
INCLINATION    = 50.0029
RA_OF_ASC_NODE = 71.8795
ARG_OF_PERICENTER = 322.6171
MEAN_ANOMALY   = 37.4209

EPHEMERIS_TYPE = 0
CLASSIFICATION_TYPE = U
NORAD_CAT_ID   = 66917
ELEMENT_SET_NO = 999
REV_AT_EPOCH   = 247
BSTAR          = .10853E-3
MEAN_MOTION_DOT = .2E-6
MEAN_MOTION_DDOT = 0

CCSDS_OMM_VERS = 2.0
CREATION_DATE  = 
ORIGINATOR     = 

OBJECT_NAME    = HULIANWANG DIGUI-108
OBJECT_ID      = 2025-285D
CENTER_NAME    = EARTH
REF_FRAME      = TEME
TIME_SYSTEM    = UTC
MEAN_ELEMENT_THEORY = SGP/SGP4

EPOCH          = 2025-12-23T20:59:18.453696
MEAN_MOTION    = 14.03603256
ECCENTRICITY   = .0006669
INCLINATION    = 50.0062
RA_OF_ASC_NODE = 71.8806
ARG_OF_PERICENTER = 317.2252
MEAN_ANOMALY   = 42.8133

EPHEMERIS_TYPE = 0
CLASSIFICATION_TYPE = U
NORAD_CAT_ID   = 66918
ELEMENT_SET_NO = 999
REV_AT_EPOCH   = 247
BSTAR          = .11468E-3
MEAN_MOTION_DOT = .3E-6
MEAN_MOTION_DDOT = 0

CCSDS_OMM_VERS = 2.0
CREATION_DATE  = 
ORIGINATOR     = 

OBJECT_NAME    = HULIANWANG DIGUI-109
OBJECT_ID      = 2025-285E
CENTER_NAME    = EARTH
REF_FRAME      = TEME
TIME_SYSTEM    = UTC
MEAN_ELEMENT_THEORY = SGP/SGP4

EPOCH          = 2025-12-23T20:56:52.424736
MEAN_MOTION    = 14.03727450
ECCENTRICITY   = .0007919
INCLINATION    = 50.0075
RA_OF_ASC_NODE = 71.8770
ARG_OF_PERICENTER = 329.5528
MEAN_ANOMALY   = 30.4915

EPHEMERIS_TYPE = 0
CLASSIFICATION_TYPE = U
NORAD_CAT_ID   = 66919
ELEMENT_SET_NO = 999
REV_AT_EPOCH   = 247
BSTAR          = .12277E-3
MEAN_MOTION_DOT = .43E-6
MEAN_MOTION_DDOT = 0

CCSDS_OMM_VERS = 2.0
CREATION_DATE  = 
ORIGINATOR     = 

OBJECT_NAME    = HULIANWANG DIGUI-110
OBJECT_ID      = 2025-285F
CENTER_NAME    = EARTH
REF_FRAME      = TEME
TIME_SYSTEM    = UTC
MEAN_ELEMENT_THEORY = SGP/SGP4

EPOCH          = 2025-12-23T20:55:46.522272
MEAN_MOTION    = 14.03683644
ECCENTRICITY   = .000563
INCLINATION    = 50.0120
RA_OF_ASC_NODE = 71.8800
ARG_OF_PERICENTER = 326.6808
MEAN_ANOMALY   = 33.3741

EPHEMERIS_TYPE = 0
CLASSIFICATION_TYPE = U
NORAD_CAT_ID   = 66920
ELEMENT_SET_NO = 999
REV_AT_EPOCH   = 247
BSTAR          = .11193E-3
MEAN_MOTION_DOT = .26E-6
MEAN_MOTION_DDOT = 0

CCSDS_OMM_VERS = 2.0
CREATION_DATE  = 
ORIGINATOR     = 

OBJECT_NAME    = HULIANWANG DIGUI-111
OBJECT_ID      = 2025-285G
CENTER_NAME    = EARTH
REF_FRAME      = TEME
TIME_SYSTEM    = UTC
MEAN_ELEMENT_THEORY = SGP/SGP4

EPOCH          = 2025-12-23T20:54:39.607200
MEAN_MOTION    = 14.03633200
ECCENTRICITY   = .0006712
INCLINATION    = 50.0124
RA_OF_ASC_NODE = 71.8794
ARG_OF_PERICENTER = 330.4652
MEAN_ANOMALY   = 29.5873

EPHEMERIS_TYPE = 0
CLASSIFICATION_TYPE = U
NORAD_CAT_ID   = 66921
ELEMENT_SET_NO = 999
REV_AT_EPOCH   = 247
BSTAR          = .11601E-3
MEAN_MOTION_DOT = .32E-6
MEAN_MOTION_DDOT = 0

CCSDS_OMM_VERS = 2.0
CREATION_DATE  = 
ORIGINATOR     = 

OBJECT_NAME    = HULIANWANG DIGUI-112
OBJECT_ID      = 2025-285H
CENTER_NAME    = EARTH
REF_FRAME      = TEME
TIME_SYSTEM    = UTC
MEAN_ELEMENT_THEORY = SGP/SGP4

EPOCH          = 2025-12-23T20:53:06.183744
MEAN_MOTION    = 14.03663209
ECCENTRICITY   = .0006531
INCLINATION    = 50.0096
RA_OF_ASC_NODE = 71.8658
ARG_OF_PERICENTER = 341.0987
MEAN_ANOMALY   = 18.9674

EPHEMERIS_TYPE = 0
CLASSIFICATION_TYPE = U
NORAD_CAT_ID   = 66922
ELEMENT_SET_NO = 999
REV_AT_EPOCH   = 247
BSTAR          = .12341E-3
MEAN_MOTION_DOT = .44E-6
MEAN_MOTION_DDOT = 0

CCSDS_OMM_VERS = 2.0
CREATION_DATE  = 
ORIGINATOR     = 

OBJECT_NAME    = HULIANWANG DIGUI-113
OBJECT_ID      = 2025-285J
CENTER_NAME    = EARTH
REF_FRAME      = TEME
TIME_SYSTEM    = UTC
MEAN_ELEMENT_THEORY = SGP/SGP4

EPOCH          = 2025-12-23T20:51:21.934368
MEAN_MOTION    = 14.03701125
ECCENTRICITY   = .0005136
INCLINATION    = 50.0096
RA_OF_ASC_NODE = 71.8611
ARG_OF_PERICENTER = 335.6438
MEAN_ANOMALY   = 24.4223

EPHEMERIS_TYPE = 0
CLASSIFICATION_TYPE = U
NORAD_CAT_ID   = 66923
ELEMENT_SET_NO = 999
REV_AT_EPOCH   = 247
BSTAR          = .1182E-3
MEAN_MOTION_DOT = .35E-6
MEAN_MOTION_DDOT = 0

CCSDS_OMM_VERS = 2.0
CREATION_DATE  = 
ORIGINATOR     = 

OBJECT_NAME    = CZ-8A R/B
OBJECT_ID      = 2025-285K
CENTER_NAME    = EARTH
REF_FRAME      = TEME
TIME_SYSTEM    = UTC
MEAN_ELEMENT_THEORY = SGP/SGP4

EPOCH          = 2025-12-23T15:05:29.546880
MEAN_MOTION    = 14.30505924
ECCENTRICITY   = .0119246
INCLINATION    = 50.0083
RA_OF_ASC_NODE = 69.8031
ARG_OF_PERICENTER = 145.1331
MEAN_ANOMALY   = 215.7469

EPHEMERIS_TYPE = 0
CLASSIFICATION_TYPE = U
NORAD_CAT_ID   = 66924
ELEMENT_SET_NO = 999
REV_AT_EPOCH   = 248
BSTAR          = .55403E-4
MEAN_MOTION_DOT = -.9E-7
MEAN_MOTION_DDOT = 0

CCSDS_OMM_VERS = 2.0
CREATION_DATE  = 
ORIGINATOR     = 

OBJECT_NAME    = STARLINK-35945
OBJECT_ID      = 2025-286A
CENTER_NAME    = EARTH
REF_FRAME      = TEME
TIME_SYSTEM    = UTC
MEAN_ELEMENT_THEORY = SGP/SGP4

EPOCH          = 2025-12-23T20:00:01.000224
MEAN_MOTION    = 15.68791754
ECCENTRICITY   = .0001074
INCLINATION    = 53.1587
RA_OF_ASC_NODE = 354.9564
ARG_OF_PERICENTER = 80.7275
MEAN_ANOMALY   = 304.4403

EPHEMERIS_TYPE = 0
CLASSIFICATION_TYPE = U
NORAD_CAT_ID   = 66925
ELEMENT_SET_NO = 999
REV_AT_EPOCH   = 377
BSTAR          = -.18458E-1
MEAN_MOTION_DOT = -.1909415E-1
MEAN_MOTION_DDOT = 0

CCSDS_OMM_VERS = 2.0
CREATION_DATE  = 
ORIGINATOR     = 

OBJECT_NAME    = STARLINK-35942
OBJECT_ID      = 2025-286B
CENTER_NAME    = EARTH
REF_FRAME      = TEME
TIME_SYSTEM    = UTC
MEAN_ELEMENT_THEORY = SGP/SGP4

EPOCH          = 2025-12-23T20:00:01.000224
MEAN_MOTION    = 15.67092482
ECCENTRICITY   = .0001017
INCLINATION    = 53.1592
RA_OF_ASC_NODE = 354.9668
ARG_OF_PERICENTER = 94.0052
MEAN_ANOMALY   = 286.0824

EPHEMERIS_TYPE = 0
CLASSIFICATION_TYPE = U
NORAD_CAT_ID   = 66926
ELEMENT_SET_NO = 999
REV_AT_EPOCH   = 377
BSTAR          = -.20218E-1
MEAN_MOTION_DOT = -.1945075E-1
MEAN_MOTION_DDOT = 0

CCSDS_OMM_VERS = 2.0
CREATION_DATE  = 
ORIGINATOR     = 

OBJECT_NAME    = STARLINK-35943
OBJECT_ID      = 2025-286C
CENTER_NAME    = EARTH
REF_FRAME      = TEME
TIME_SYSTEM    = UTC
MEAN_ELEMENT_THEORY = SGP/SGP4

EPOCH          = 2025-12-23T20:00:01.000224
MEAN_MOTION    = 15.67094400
ECCENTRICITY   = .0001102
INCLINATION    = 53.1592
RA_OF_ASC_NODE = 354.9628
ARG_OF_PERICENTER = 86.5516
MEAN_ANOMALY   = 295.4515

EPHEMERIS_TYPE = 0
CLASSIFICATION_TYPE = U
NORAD_CAT_ID   = 66927
ELEMENT_SET_NO = 999
REV_AT_EPOCH   = 377
BSTAR          = -.20253E-1
MEAN_MOTION_DOT = -.1948201E-1
MEAN_MOTION_DDOT = 0

